[{"OBJECT_NAME":"HULIANWANG DIGUI-49","OBJECT_ID":"2025-168A","EPOCH":"2026-03-07T16:03:09.668160","MEAN_MOTION":13.29339136,"ECCENTRICITY":0.00074305,"INCLINATION":50.0048,"RA_OF_ASC_NODE":330.0727,"ARG_OF_PERICENTER":159.3427,"MEAN_ANOMALY":200.7747,"EPHEMERIS_TYPE":0,"CLASSIFICATION_TYPE":"U","NORAD_CAT_ID":65106,"ELEMENT_SET_NO":999,"REV_AT_EPOCH":2918,"BSTAR":0.00018134856,"MEAN_MOTION_DOT":-4.0e-7,"MEAN_MOTION_DDOT":0},{"OBJECT_NAME":"HULIANWANG DIGUI-50","OBJECT_ID":"2025-168B","EPOCH":"2026-03-07T14:02:48.168672","MEAN_MOTION":13.29339719,"ECCENTRICITY":0.00084114,"INCLINATION":50.0018,"RA_OF_ASC_NODE":330.2412,"ARG_OF_PERICENTER":145.121,"MEAN_ANOMALY":215.0215,"EPHEMERIS_TYPE":0,"CLASSIFICATION_TYPE":"U","NORAD_CAT_ID":65107,"ELEMENT_SET_NO":999,"REV_AT_EPOCH":2917,"BSTAR":0.00017499569,"MEAN_MOTION_DOT":-4.3e-7,"MEAN_MOTION_DDOT":0},{"OBJECT_NAME":"HULIANWANG DIGUI-51","OBJECT_ID":"2025-168C","EPOCH":"2026-03-07T13:50:45.373056","MEAN_MOTION":13.29339998,"ECCENTRICITY":0.0009763,"INCLINATION":50.0055,"RA_OF_ASC_NODE":330.268,"ARG_OF_PERICENTER":145.1578,"MEAN_ANOMALY":214.9935,"EPHEMERIS_TYPE":0,"CLASSIFICATION_TYPE":"U","NORAD_CAT_ID":65108,"ELEMENT_SET_NO":999,"REV_AT_EPOCH":2917,"BSTAR":0.00018478948,"MEAN_MOTION_DOT":-3.8e-7,"MEAN_MOTION_DDOT":0},{"OBJECT_NAME":"HULIANWANG DIGUI-52","OBJECT_ID":"2025-168D","EPOCH":"2026-03-07T15:27:09.084960","MEAN_MOTION":13.29338634,"ECCENTRICITY":0.00096152,"INCLINATION":50.0048,"RA_OF_ASC_NODE":329.9378,"ARG_OF_PERICENTER":158.3771,"MEAN_ANOMALY":201.7509,"EPHEMERIS_TYPE":0,"CLASSIFICATION_TYPE":"U","NORAD_CAT_ID":65109,"ELEMENT_SET_NO":999,"REV_AT_EPOCH":2918,"BSTAR":0.00018570262,"MEAN_MOTION_DOT":-3.8e-7,"MEAN_MOTION_DDOT":0},{"OBJECT_NAME":"HULIANWANG DIGUI-53","OBJECT_ID":"2025-168E","EPOCH":"2026-03-07T15:15:07.259616","MEAN_MOTION":13.29338533,"ECCENTRICITY":0.00084336,"INCLINATION":50.0056,"RA_OF_ASC_NODE":329.9163,"ARG_OF_PERICENTER":147.9965,"MEAN_ANOMALY":212.1421,"EPHEMERIS_TYPE":0,"CLASSIFICATION_TYPE":"U","NORAD_CAT_ID":65110,"ELEMENT_SET_NO":999,"REV_AT_EPOCH":2918,"BSTAR":0.0001909311,"MEAN_MOTION_DOT":-3.5e-7,"MEAN_MOTION_DDOT":0},{"OBJECT_NAME":"HULIANWANG DIGUI-54","OBJECT_ID":"2025-168F","EPOCH":"2026-03-07T14:39:18.183168","MEAN_MOTION":13.29335874,"ECCENTRICITY":0.00100119,"INCLINATION":50.0006,"RA_OF_ASC_NODE":329.6954,"ARG_OF_PERICENTER":153.2195,"MEAN_ANOMALY":206.9196,"EPHEMERIS_TYPE":0,"CLASSIFICATION_TYPE":"U","NORAD_CAT_ID":65111,"ELEMENT_SET_NO":999,"REV_AT_EPOCH":2918,"BSTAR":0.00020883477,"MEAN_MOTION_DOT":-2.7e-7,"MEAN_MOTION_DDOT":0},{"OBJECT_NAME":"HULIANWANG DIGUI-55","OBJECT_ID":"2025-168G","EPOCH":"2026-03-07T15:02:58.894656","MEAN_MOTION":13.29339338,"ECCENTRICITY":0.00113084,"INCLINATION":50.0012,"RA_OF_ASC_NODE":329.7891,"ARG_OF_PERICENTER":149.1623,"MEAN_ANOMALY":210.9915,"EPHEMERIS_TYPE":0,"CLASSIFICATION_TYPE":"U","NORAD_CAT_ID":65112,"ELEMENT_SET_NO":999,"REV_AT_EPOCH":2918,"BSTAR":0.00022622381,"MEAN_MOTION_DOT":-1.9e-7,"MEAN_MOTION_DDOT":0},{"OBJECT_NAME":"HULIANWANG DIGUI-56","OBJECT_ID":"2025-168H","EPOCH":"2026-03-07T14:50:58.870752","MEAN_MOTION":13.29338762,"ECCENTRICITY":0.0011001,"INCLINATION":50.0003,"RA_OF_ASC_NODE":329.73,"ARG_OF_PERICENTER":171.0528,"MEAN_ANOMALY":189.0542,"EPHEMERIS_TYPE":0,"CLASSIFICATION_TYPE":"U","NORAD_CAT_ID":65113,"ELEMENT_SET_NO":999,"REV_AT_EPOCH":2918,"BSTAR":0.0002290412,"MEAN_MOTION_DOT":-1.8e-7,"MEAN_MOTION_DDOT":0},{"OBJECT_NAME":"HULIANWANG DIGUI-57","OBJECT_ID":"2025-168J","EPOCH":"2026-03-07T14:27:18.615456","MEAN_MOTION":13.29335712,"ECCENTRICITY":0.00087566,"INCLINATION":50.0031,"RA_OF_ASC_NODE":329.7001,"ARG_OF_PERICENTER":161.4425,"MEAN_ANOMALY":198.6768,"EPHEMERIS_TYPE":0,"CLASSIFICATION_TYPE":"U","NORAD_CAT_ID":65114,"ELEMENT_SET_NO":999,"REV_AT_EPOCH":2919,"BSTAR":0.00021642191,"MEAN_MOTION_DOT":-2.4e-7,"MEAN_MOTION_DDOT":0},{"OBJECT_NAME":"HULIANWANG DIGUI-58","OBJECT_ID":"2025-174A","EPOCH":"2026-03-07T15:41:55.201632","MEAN_MOTION":13.24421332,"ECCENTRICITY":0.00012739,"INCLINATION":86.4922,"RA_OF_ASC_NODE":286.3198,"ARG_OF_PERICENTER":89.6801,"MEAN_ANOMALY":270.4479,"EPHEMERIS_TYPE":0,"CLASSIFICATION_TYPE":"U","NORAD_CAT_ID":65164,"ELEMENT_SET_NO":999,"REV_AT_EPOCH":2735,"BSTAR":6.839382e-5,"MEAN_MOTION_DOT":4.4e-7,"MEAN_MOTION_DDOT":0},{"OBJECT_NAME":"HULIANWANG DIGUI-59","OBJECT_ID":"2025-174B","EPOCH":"2026-03-07T14:04:00.239232","MEAN_MOTION":13.24421506,"ECCENTRICITY":0.00012593,"INCLINATION":86.4883,"RA_OF_ASC_NODE":286.2715,"ARG_OF_PERICENTER":88.753,"MEAN_ANOMALY":271.3748,"EPHEMERIS_TYPE":0,"CLASSIFICATION_TYPE":"U","NORAD_CAT_ID":65165,"ELEMENT_SET_NO":999,"REV_AT_EPOCH":2734,"BSTAR":5.2105828e-5,"MEAN_MOTION_DOT":3.7e-7,"MEAN_MOTION_DDOT":0},{"OBJECT_NAME":"HULIANWANG DIGUI-60","OBJECT_ID":"2025-174C","EPOCH":"2026-03-07T14:14:50.607456","MEAN_MOTION":13.24421692,"ECCENTRICITY":0.00012398,"INCLINATION":86.4914,"RA_OF_ASC_NODE":286.3391,"ARG_OF_PERICENTER":91.2754,"MEAN_ANOMALY":268.8522,"EPHEMERIS_TYPE":0,"CLASSIFICATION_TYPE":"U","NORAD_CAT_ID":65166,"ELEMENT_SET_NO":999,"REV_AT_EPOCH":2734,"BSTAR":4.3706068e-5,"MEAN_MOTION_DOT":3.3e-7,"MEAN_MOTION_DDOT":0},{"OBJECT_NAME":"HULIANWANG DIGUI-61","OBJECT_ID":"2025-174D","EPOCH":"2026-03-07T14:25:48.481248","MEAN_MOTION":13.24420217,"ECCENTRICITY":0.00011909,"INCLINATION":86.4923,"RA_OF_ASC_NODE":286.3594,"ARG_OF_PERICENTER":90.8417,"MEAN_ANOMALY":269.2853,"EPHEMERIS_TYPE":0,"CLASSIFICATION_TYPE":"U","NORAD_CAT_ID":65167,"ELEMENT_SET_NO":999,"REV_AT_EPOCH":2734,"BSTAR":4.8296351e-5,"MEAN_MOTION_DOT":3.5e-7,"MEAN_MOTION_DDOT":0},{"OBJECT_NAME":"HULIANWANG DIGUI-62","OBJECT_ID":"2025-174E","EPOCH":"2026-03-07T14:36:37.000512","MEAN_MOTION":13.24421562,"ECCENTRICITY":0.00012105,"INCLINATION":86.4864,"RA_OF_ASC_NODE":286.2448,"ARG_OF_PERICENTER":93.6291,"MEAN_ANOMALY":266.4982,"EPHEMERIS_TYPE":0,"CLASSIFICATION_TYPE":"U","NORAD_CAT_ID":65168,"ELEMENT_SET_NO":999,"REV_AT_EPOCH":2734,"BSTAR":8.8541022e-5,"MEAN_MOTION_DOT":5.3e-7,"MEAN_MOTION_DDOT":0},{"OBJECT_NAME":"HULIANWANG DIGUI-63","OBJECT_ID":"2025-174F","EPOCH":"2026-03-07T14:47:28.404672","MEAN_MOTION":13.24421946,"ECCENTRICITY":0.00012155,"INCLINATION":86.4917,"RA_OF_ASC_NODE":286.3529,"ARG_OF_PERICENTER":90.7505,"MEAN_ANOMALY":269.3768,"EPHEMERIS_TYPE":0,"CLASSIFICATION_TYPE":"U","NORAD_CAT_ID":65169,"ELEMENT_SET_NO":999,"REV_AT_EPOCH":2734,"BSTAR":0.00012598551,"MEAN_MOTION_DOT":6.9e-7,"MEAN_MOTION_DDOT":0},{"OBJECT_NAME":"HULIANWANG DIGUI-64","OBJECT_ID":"2025-174G","EPOCH":"2026-03-07T14:58:21.309600","MEAN_MOTION":13.24421938,"ECCENTRICITY":0.00012058,"INCLINATION":86.4875,"RA_OF_ASC_NODE":286.2748,"ARG_OF_PERICENTER":93.2585,"MEAN_ANOMALY":266.8687,"EPHEMERIS_TYPE":0,"CLASSIFICATION_TYPE":"U","NORAD_CAT_ID":65170,"ELEMENT_SET_NO":999,"REV_AT_EPOCH":2734,"BSTAR":0.00011825935,"MEAN_MOTION_DOT":6.5e-7,"MEAN_MOTION_DDOT":0}]
