HULIANWANG DIGUI-49     
1 65106U 25168A   26066.66886190 -.00000040  00000+0  18135-3 0  9999
2 65106  50.0048 330.0727 0007430 159.3427 200.7747 13.29339136 29181
HULIANWANG DIGUI-50     
1 65107U 25168B   26066.58527973 -.00000043  00000+0  17500-3 0  9990
2 65107  50.0018 330.2412 0008411 145.1210 215.0215 13.29339719 29170
HULIANWANG DIGUI-51     
1 65108U 25168C   26066.57691404 -.00000038  00000+0  18479-3 0  9991
2 65108  50.0055 330.2680 0009763 145.1578 214.9935 13.29339998 29173
HULIANWANG DIGUI-52     
1 65109U 25168D   26066.64385515 -.00000038  00000+0  18570-3 0  9995
2 65109  50.0048 329.9378 0009615 158.3771 201.7509 13.29338634 29180
HULIANWANG DIGUI-53     
1 65110U 25168E   26066.63550069 -.00000035  00000+0  19093-3 0  9992
2 65110  50.0056 329.9163 0008433 147.9965 212.1421 13.29338533 29186
HULIANWANG DIGUI-54     
1 65111U 25168F   26066.61062712 -.00000027  00000+0  20883-3 0  9994
2 65111  50.0006 329.6954 0010011 153.2195 206.9196 13.29335874 29182
HULIANWANG DIGUI-55     
1 65112U 25168G   26066.62707054 -.00000019  00000+0  22622-3 0  9995
2 65112  50.0012 329.7891 0011308 149.1623 210.9915 13.29339338 29184
HULIANWANG DIGUI-56     
1 65113U 25168H   26066.61873693 -.00000018  00000+0  22904-3 0  9990
2 65113  50.0003 329.7300 0011001 171.0528 189.0542 13.29338762 29180
HULIANWANG DIGUI-57     
1 65114U 25168J   26066.60229879 -.00000024  00000+0  21642-3 0  9996
2 65114  50.0031 329.7001 0008756 161.4425 198.6768 13.29335712 29191
HULIANWANG DIGUI-58     
1 65164U 25174A   26066.65411113  .00000044  00000+0  68394-4 0  9994
2 65164  86.4922 286.3198 0001273  89.6801 270.4479 13.24421332 27352
HULIANWANG DIGUI-59     
1 65165U 25174B   26066.58611388  .00000037  00000+0  52106-4 0  9999
2 65165  86.4883 286.2715 0001259  88.7530 271.3748 13.24421506 27347
HULIANWANG DIGUI-60     
1 65166U 25174C   26066.59364129  .00000033  00000+0  43706-4 0  9991
2 65166  86.4914 286.3391 0001239  91.2754 268.8522 13.24421692 27346
HULIANWANG DIGUI-61     
1 65167U 25174D   26066.60125557  .00000035  00000+0  48296-4 0  9995
2 65167  86.4923 286.3594 0001190  90.8417 269.2853 13.24420217 27343
HULIANWANG DIGUI-62     
1 65168U 25174E   26066.60876158  .00000053  00000+0  88541-4 0  9993
2 65168  86.4864 286.2448 0001210  93.6291 266.4982 13.24421562 27345
HULIANWANG DIGUI-63     
1 65169U 25174F   26066.61630098  .00000069  00000+0  12599-3 0  9992
2 65169  86.4917 286.3529 0001215  90.7505 269.3768 13.24421946 27347
HULIANWANG DIGUI-64     
1 65170U 25174G   26066.62385775  .00000065  00000+0  11826-3 0  9992
2 65170  86.4875 286.2748 0001205  93.2585 266.8687 13.24421938 27342
